{
  "type": "FeatureCollection",
  "features": [
    {
      "type": "Feature",
      "properties": {
        "norad_id": 15362,
        "name": "NOVA 3",
        "group": "nnss",
        "lat": -16.13892722796041,
        "lon": -99.34527356846456,
        "alt_km": 1180.8762236785024,
        "timestamp": "2025-12-25T22:42:17.279924+00:00",
        "meta_object_name": "NOVA 3",
        "meta_object_id": "1984-110A",
        "meta_epoch": "2025-12-25T18:40:43.211424",
        "meta_mean_motion": 13.23046286,
        "meta_eccentricity": 0.0029854,
        "meta_inclination": 90.1217,
        "meta_ra_of_asc_node": 80.688,
        "meta_arg_of_pericenter": 294.3065,
        "meta_mean_anomaly": 183.5086,
        "meta_ephemeris_type": 0,
        "meta_classification_type": "U",
        "meta_norad_cat_id": 15362,
        "meta_element_set_no": 999,
        "meta_rev_at_epoch": 98871,
        "meta_bstar": 0.00014425,
        "meta_mean_motion_dot": 6.9e-07,
        "meta_mean_motion_ddot": 0,
        "tle_line1": "1 15362U 84110A   25359.77827791  .00000069  00000+0  14425-3 0  9996",
        "tle_line2": "2 15362  90.1217  80.6880 0029854 294.3065 183.5086 13.23046286988715"
      },
      "geometry": {
        "type": "Point",
        "coordinates": [
          -99.34527356846456,
          -16.13892722796041
        ]
      }
    },
    {
      "type": "Feature",
      "properties": {
        "norad_id": 15935,
        "name": "OSCAR 30",
        "group": "nnss",
        "lat": 2.4545455643499077,
        "lon": -79.92993218592419,
        "alt_km": 1207.4638891368486,
        "timestamp": "2025-12-25T22:42:17.279935+00:00",
        "meta_object_name": "OSCAR 30",
        "meta_object_id": "1985-066A",
        "meta_epoch": "2025-12-25T17:16:15.803904",
        "meta_mean_motion": 13.3608056,
        "meta_eccentricity": 0.0168809,
        "meta_inclination": 90.1652,
        "meta_ra_of_asc_node": 100.0593,
        "meta_arg_of_pericenter": 47.6141,
        "meta_mean_anomaly": 119.9855,
        "meta_ephemeris_type": 0,
        "meta_classification_type": "U",
        "meta_norad_cat_id": 15935,
        "meta_element_set_no": 999,
        "meta_rev_at_epoch": 96626,
        "meta_bstar": 0.00020543,
        "meta_mean_motion_dot": 1.24e-06,
        "meta_mean_motion_ddot": 0,
        "tle_line1": "1 15935U 85066A   25359.71962736  .00000124  00000+0  20543-3 0  9996",
        "tle_line2": "2 15935  90.1652 100.0593 0168809  47.6141 119.9855 13.36080560966260"
      },
      "geometry": {
        "type": "Point",
        "coordinates": [
          -79.92993218592419,
          2.4545455643499077
        ]
      }
    },
    {
      "type": "Feature",
      "properties": {
        "norad_id": 15936,
        "name": "OSCAR 24",
        "group": "nnss",
        "lat": -64.20236359520482,
        "lon": -87.831721317628,
        "alt_km": 1257.0168712553605,
        "timestamp": "2025-12-25T22:42:17.279946+00:00",
        "meta_object_name": "OSCAR 24",
        "meta_object_id": "1985-066B",
        "meta_epoch": "2025-12-25T18:26:58.709184",
        "meta_mean_motion": 13.35937682,
        "meta_eccentricity": 0.0169998,
        "meta_inclination": 90.1791,
        "meta_ra_of_asc_node": 92.5359,
        "meta_arg_of_pericenter": 53.9382,
        "meta_mean_anomaly": 58.384,
        "meta_ephemeris_type": 0,
        "meta_classification_type": "U",
        "meta_norad_cat_id": 15936,
        "meta_element_set_no": 999,
        "meta_rev_at_epoch": 96817,
        "meta_bstar": 0.00016315,
        "meta_mean_motion_dot": 1e-06,
        "meta_mean_motion_ddot": 0,
        "tle_line1": "1 15936U 85066B   25359.76873506  .00000100  00000+0  16315-3 0  9994",
        "tle_line2": "2 15936  90.1791  92.5359 0169998  53.9382  58.3840 13.35937682968174"
      },
      "geometry": {
        "type": "Point",
        "coordinates": [
          -87.831721317628,
          -64.20236359520482
        ]
      }
    },
    {
      "type": "Feature",
      "properties": {
        "norad_id": 17070,
        "name": "POLAR BEAR",
        "group": "nnss",
        "lat": 32.341941051663795,
        "lon": 3.002001092184101,
        "alt_km": 966.601453692504,
        "timestamp": "2025-12-25T22:42:17.279956+00:00",
        "meta_object_name": "POLAR BEAR",
        "meta_object_id": "1986-088A",
        "meta_epoch": "2025-12-25T13:33:27.098208",
        "meta_mean_motion": 13.75253429,
        "meta_eccentricity": 0.0041279,
        "meta_inclination": 89.6169,
        "meta_ra_of_asc_node": 183.2601,
        "meta_arg_of_pericenter": 82.3818,
        "meta_mean_anomaly": 338.9269,
        "meta_ephemeris_type": 0,
        "meta_classification_type": "U",
        "meta_norad_cat_id": 17070,
        "meta_element_set_no": 999,
        "meta_rev_at_epoch": 96155,
        "meta_bstar": 0.00010362,
        "meta_mean_motion_dot": 1.11e-06,
        "meta_mean_motion_ddot": 0,
        "tle_line1": "1 17070U 86088A   25359.56489697  .00000111  00000+0  10362-3 0  9990",
        "tle_line2": "2 17070  89.6169 183.2601 0041279  82.3818 338.9269 13.75253429961557"
      },
      "geometry": {
        "type": "Point",
        "coordinates": [
          3.002001092184101,
          32.341941051663795
        ]
      }
    },
    {
      "type": "Feature",
      "properties": {
        "norad_id": 18361,
        "name": "OSCAR 27",
        "group": "nnss",
        "lat": 43.14218742603916,
        "lon": 79.41563275097755,
        "alt_km": 1148.9236583714246,
        "timestamp": "2025-12-25T22:42:17.279966+00:00",
        "meta_object_name": "OSCAR 27",
        "meta_object_id": "1987-080A",
        "meta_epoch": "2025-12-25T17:07:48.108000",
        "meta_mean_motion": 13.44909384,
        "meta_eccentricity": 0.010401,
        "meta_inclination": 90.3736,
        "meta_ra_of_asc_node": 79.7573,
        "meta_arg_of_pericenter": 186.4805,
        "meta_mean_anomaly": 173.5005,
        "meta_ephemeris_type": 0,
        "meta_classification_type": "U",
        "meta_norad_cat_id": 18361,
        "meta_element_set_no": 999,
        "meta_rev_at_epoch": 87731,
        "meta_bstar": 0.00017118,
        "meta_mean_motion_dot": 1.12e-06,
        "meta_mean_motion_ddot": 0,
        "tle_line1": "1 18361U 87080A   25359.71375125  .00000112  00000+0  17118-3 0  9991",
        "tle_line2": "2 18361  90.3736  79.7573 0104010 186.4805 173.5005 13.44909384877317"
      },
      "geometry": {
        "type": "Point",
        "coordinates": [
          79.41563275097755,
          43.14218742603916
        ]
      }
    },
    {
      "type": "Feature",
      "properties": {
        "norad_id": 18362,
        "name": "OSCAR 29",
        "group": "nnss",
        "lat": 34.177550934724685,
        "lon": 79.97133383060996,
        "alt_km": 1168.5375820677873,
        "timestamp": "2025-12-25T22:42:17.279977+00:00",
        "meta_object_name": "OSCAR 29",
        "meta_object_id": "1987-080B",
        "meta_epoch": "2025-12-25T17:43:56.449920",
        "meta_mean_motion": 13.4445087,
        "meta_eccentricity": 0.0104815,
        "meta_inclination": 90.3749,
        "meta_ra_of_asc_node": 80.2183,
        "meta_arg_of_pericenter": 209.5518,
        "meta_mean_anomaly": 262.6381,
        "meta_ephemeris_type": 0,
        "meta_classification_type": "U",
        "meta_norad_cat_id": 18362,
        "meta_element_set_no": 999,
        "meta_rev_at_epoch": 87684,
        "meta_bstar": 0.000157,
        "meta_mean_motion_dot": 1.02e-06,
        "meta_mean_motion_ddot": 0,
        "tle_line1": "1 18362U 87080B   25359.73884780  .00000102  00000+0  15700-3 0  9990",
        "tle_line2": "2 18362  90.3749  80.2183 0104815 209.5518 262.6381 13.44450870876842"
      },
      "geometry": {
        "type": "Point",
        "coordinates": [
          79.97133383060996,
          34.177550934724685
        ]
      }
    },
    {
      "type": "Feature",
      "properties": {
        "norad_id": 19070,
        "name": "OSCAR 23",
        "group": "nnss",
        "lat": 82.86063598109466,
        "lon": -160.63900977187532,
        "alt_km": 1046.9240762260679,
        "timestamp": "2025-12-25T22:42:17.279987+00:00",
        "meta_object_name": "OSCAR 23",
        "meta_object_id": "1988-033A",
        "meta_epoch": "2025-12-25T15:34:55.886016",
        "meta_mean_motion": 13.27789128,
        "meta_eccentricity": 0.0190526,
        "meta_inclination": 90.3203,
        "meta_ra_of_asc_node": 16.7922,
        "meta_arg_of_pericenter": 144.1187,
        "meta_mean_anomaly": 336.7875,
        "meta_ephemeris_type": 0,
        "meta_classification_type": "U",
        "meta_norad_cat_id": 19070,
        "meta_element_set_no": 999,
        "meta_rev_at_epoch": 82424,
        "meta_bstar": 9.5671e-05,
        "meta_mean_motion_dot": 5.7e-07,
        "meta_mean_motion_ddot": 0,
        "tle_line1": "1 19070U 88033A   25359.64925794  .00000057  00000+0  95671-4 0  9992",
        "tle_line2": "2 19070  90.3203  16.7922 0190526 144.1187 336.7875 13.27789128824249"
      },
      "geometry": {
        "type": "Point",
        "coordinates": [
          -160.63900977187532,
          82.86063598109466
        ]
      }
    }
  ]
}